
{
  "type": "FeatureCollection",
  "name": "Perimetro_GIF_Niebla_2026",
  "crs": { "type": "name", "properties": { "name": "urn:ogc:def:crs:OGC:1.3:CRS84" } },
  "features": [
    {
      "type": "Feature",
      "properties": {
        "municipio": "Niebla",
        "provincia": "Huelva",
        "ccaa": "ANDALUCÍA",
        "fecha_inicio": "2026-08-06",
        "superficie_ha": 39821.31,
        "fuente": "Avance CCAA / MITECO - EFFIS"
      },
      "geometry": {
        "type": "Polygon",
        "coordinates": [
          [
            [-6.3062, 37.537], [-6.3185, 37.5308], [-6.3289, 37.5235], [-6.3587, 37.5236],
            [-6.3972, 37.5102], [-6.4348, 37.5108], [-6.4542, 37.5072], [-6.4981, 37.5065],
            [-6.4946, 37.4897], [-6.4847, 37.49], [-6.4723, 37.4825], [-6.488, 37.478],
            [-6.5088, 37.4665], [-6.5409, 37.4521], [-6.5671, 37.4459], [-6.6013, 37.4356],
            [-6.6305, 37.4533], [-6.6726, 37.4512], [-6.6964, 37.4601], [-6.7186, 37.4794],
            [-6.7031, 37.4933], [-6.6663, 37.5265], [-6.6522, 37.5676], [-6.6316, 37.6099],
            [-6.6062, 37.6177], [-6.572, 37.611], [-6.5542, 37.612], [-6.5421, 37.6227],
            [-6.5144, 37.6117], [-6.5228, 37.5887], [-6.4966, 37.5889], [-6.4843, 37.5957],
            [-6.4557, 37.6083], [-6.438, 37.6118], [-6.4291, 37.6071], [-6.4289, 37.613],
            [-6.4028, 37.6095], [-6.3749, 37.6016], [-6.3722, 37.5803], [-6.3714, 37.5609],
            [-6.3505, 37.5731], [-6.3287, 37.59], [-6.2908, 37.5904], [-6.2741, 37.5704],
            [-6.293, 37.5522], [-6.2972, 37.5639], [-6.2906, 37.5535], [-6.2964, 37.5439],
            [-6.2897, 37.5363], [-6.3084, 37.5378], [-6.3062, 37.537]
          ]
        ]
      }
    }
  ]
}
